{
    "links": {
        "self": "http://www.neowsapp.com/rest/v1/neo/3963429?api_key=iIulBulltgU6a56xZRHN4H3l9WmuAYTsLGpBGhQ2"
    },
    "id": "3963429",
    "neo_reference_id": "3963429",
    "name": "(2019 YT4)",
    "designation": "2019 YT4",
    "nasa_jpl_url": "http://ssd.jpl.nasa.gov/sbdb.cgi?sstr=3963429",
    "absolute_magnitude_h": 24.9,
    "estimated_diameter": {
        "kilometers": {
            "estimated_diameter_min": 0.0278326768,
            "estimated_diameter_max": 0.0622357573
        },
        "meters": {
            "estimated_diameter_min": 27.8326768072,
            "estimated_diameter_max": 62.2357573367
        },
        "miles": {
            "estimated_diameter_min": 0.0172944182,
            "estimated_diameter_max": 0.0386714948
        },
        "feet": {
            "estimated_diameter_min": 91.3145593761,
            "estimated_diameter_max": 204.1855621004
        }
    },
    "is_potentially_hazardous_asteroid": false,
    "close_approach_data": [
        {
            "close_approach_date": "2019-11-22",
            "close_approach_date_full": "2019-Nov-22 13:03",
            "epoch_date_close_approach": 1574427780000,
            "relative_velocity": {
                "kilometers_per_second": "4.8811835287",
                "kilometers_per_hour": "17572.2607031519",
                "miles_per_hour": "10918.7194352446"
            },
            "miss_distance": {
                "astronomical": "0.0614885366",
                "lunar": "23.9190407374",
                "kilometers": "9198554.104777042",
                "miles": "5715716.4794134996"
            },
            "orbiting_body": "Earth"
        },
        {
            "close_approach_date": "2091-09-28",
            "close_approach_date_full": "2091-Sep-28 02:32",
            "epoch_date_close_approach": 3841785120000,
            "relative_velocity": {
                "kilometers_per_second": "19.2112309011",
                "kilometers_per_hour": "69160.4312438135",
                "miles_per_hour": "42973.6024025795"
            },
            "miss_distance": {
                "astronomical": "0.4864207059",
                "lunar": "189.2176545951",
                "kilometers": "72767501.526536433",
                "miles": "45215628.7720234554"
            },
            "orbiting_body": "Earth"
        }
    ],
    "orbital_data": {
        "orbit_id": "4",
        "orbit_determination_date": "2020-09-11 07:46:19",
        "first_observation_date": "2019-12-28",
        "last_observation_date": "2020-01-05",
        "data_arc_in_days": 8,
        "observations_used": 22,
        "orbit_uncertainty": "8",
        "minimum_orbit_intersection": ".0558115",
        "jupiter_tisserand_invariant": "4.137",
        "epoch_osculation": "2458848.5",
        "eccentricity": ".3941488721878548",
        "semi_major_axis": "1.681602762712435",
        "inclination": "3.714621839843026",
        "ascending_node_longitude": "111.0507229365582",
        "orbital_period": "796.4959010302639",
        "perihelion_distance": "1.018800930321348",
        "perihelion_argument": "310.3069646491693",
        "aphelion_distance": "2.344404595103522",
        "perihelion_time": "2458810.712726541094",
        "mean_anomaly": "17.07908154657193",
        "mean_motion": ".4519797271201793",
        "equinox": "J2000",
        "orbit_class": {
            "orbit_class_type": "AMO",
            "orbit_class_description": "Near-Earth asteroid orbits similar to that of 1221 Amor",
            "orbit_class_range": "1.017 AU < q (perihelion) < 1.3 AU"
        }
    },
    "is_sentry_object": false
}